[{"OBJECT_NAME":"FENGYUN 1C DEB","OBJECT_ID":"1999-025ALN","EPOCH":"2026-03-15T00:41:44.481984","MEAN_MOTION":14.09016283,"ECCENTRICITY":0.00224383,"INCLINATION":98.7612,"RA_OF_ASC_NODE":106.1427,"ARG_OF_PERICENTER":35.2335,"MEAN_ANOMALY":24.9613,"EPHEMERIS_TYPE":0,"CLASSIFICATION_TYPE":"U","NORAD_CAT_ID":30572,"ELEMENT_SET_NO":999,"REV_AT_EPOCH":98061,"BSTAR":0.00034144538,"MEAN_MOTION_DOT":5.5e-6,"MEAN_MOTION_DDOT":0},{"OBJECT_NAME":"FENGYUN 1C DEB","OBJECT_ID":"1999-025ALP","EPOCH":"2026-03-15T01:17:26.071872","MEAN_MOTION":14.14533485,"ECCENTRICITY":0.00867631,"INCLINATION":99.2177,"RA_OF_ASC_NODE":119.7489,"ARG_OF_PERICENTER":15.7902,"MEAN_ANOMALY":41.9983,"EPHEMERIS_TYPE":0,"CLASSIFICATION_TYPE":"U","NORAD_CAT_ID":30573,"ELEMENT_SET_NO":999,"REV_AT_EPOCH":97502,"BSTAR":0.0015558824,"MEAN_MOTION_DOT":3.049e-5,"MEAN_MOTION_DDOT":0},{"OBJECT_NAME":"FENGYUN 1C DEB","OBJECT_ID":"1999-025ALQ","EPOCH":"2026-03-13T22:21:39.977280","MEAN_MOTION":13.78209214,"ECCENTRICITY":0.02190673,"INCLINATION":99.308,"RA_OF_ASC_NODE":239.7557,"ARG_OF_PERICENTER":108.1357,"MEAN_ANOMALY":254.3782,"EPHEMERIS_TYPE":0,"CLASSIFICATION_TYPE":"U","NORAD_CAT_ID":30574,"ELEMENT_SET_NO":999,"REV_AT_EPOCH":95024,"BSTAR":0.0025600177,"MEAN_MOTION_DOT":3.041e-5,"MEAN_MOTION_DDOT":0},{"OBJECT_NAME":"FENGYUN 1C DEB","OBJECT_ID":"1999-025ALR","EPOCH":"2026-03-15T05:45:17.265024","MEAN_MOTION":14.4071158,"ECCENTRICITY":0.00521351,"INCLINATION":99.1632,"RA_OF_ASC_NODE":176.6908,"ARG_OF_PERICENTER":325.7882,"MEAN_ANOMALY":101.8149,"EPHEMERIS_TYPE":0,"CLASSIFICATION_TYPE":"U","NORAD_CAT_ID":30575,"ELEMENT_SET_NO":999,"REV_AT_EPOCH":99549,"BSTAR":0.00077360968,"MEAN_MOTION_DOT":2.462e-5,"MEAN_MOTION_DDOT":0},{"OBJECT_NAME":"FENGYUN 1C DEB","OBJECT_ID":"1999-025ALT","EPOCH":"2026-03-14T22:52:55.257312","MEAN_MOTION":14.1132534,"ECCENTRICITY":0.0029235,"INCLINATION":98.7584,"RA_OF_ASC_NODE":110.6953,"ARG_OF_PERICENTER":23.7974,"MEAN_ANOMALY":96.5966,"EPHEMERIS_TYPE":0,"CLASSIFICATION_TYPE":"U","NORAD_CAT_ID":30577,"ELEMENT_SET_NO":999,"REV_AT_EPOCH":98085,"BSTAR":0.00046225785,"MEAN_MOTION_DOT":7.96e-6,"MEAN_MOTION_DDOT":0},{"OBJECT_NAME":"FENGYUN 1C DEB","OBJECT_ID":"1999-025ALV","EPOCH":"2026-03-14T08:31:25.157856","MEAN_MOTION":14.05360998,"ECCENTRICITY":0.0052637,"INCLINATION":98.7985,"RA_OF_ASC_NODE":100.3633,"ARG_OF_PERICENTER":205.3511,"MEAN_ANOMALY":169.6231,"EPHEMERIS_TYPE":0,"CLASSIFICATION_TYPE":"U","NORAD_CAT_ID":30579,"ELEMENT_SET_NO":999,"REV_AT_EPOCH":97744,"BSTAR":0.00047179333,"MEAN_MOTION_DOT":7.31e-6,"MEAN_MOTION_DDOT":0},{"OBJECT_NAME":"FENGYUN 1C DEB","OBJECT_ID":"1999-025ALZ","EPOCH":"2026-03-14T13:49:52.307040","MEAN_MOTION":14.1743106,"ECCENTRICITY":0.01945263,"INCLINATION":99.144,"RA_OF_ASC_NODE":297.5066,"ARG_OF_PERICENTER":56.1351,"MEAN_ANOMALY":305.8164,"EPHEMERIS_TYPE":0,"CLASSIFICATION_TYPE":"U","NORAD_CAT_ID":30594,"ELEMENT_SET_NO":999,"REV_AT_EPOCH":98880,"BSTAR":0.00016551565,"MEAN_MOTION_DOT":3.56e-6,"MEAN_MOTION_DDOT":0},{"OBJECT_NAME":"FENGYUN 1C DEB","OBJECT_ID":"1999-025AMB","EPOCH":"2026-03-15T05:55:24.256128","MEAN_MOTION":14.34599218,"ECCENTRICITY":0.0248111,"INCLINATION":98.4189,"RA_OF_ASC_NODE":74.6618,"ARG_OF_PERICENTER":13.7602,"MEAN_ANOMALY":48.4629,"EPHEMERIS_TYPE":0,"CLASSIFICATION_TYPE":"U","NORAD_CAT_ID":30596,"ELEMENT_SET_NO":999,"REV_AT_EPOCH":99887,"BSTAR":0.00054610682,"MEAN_MOTION_DOT":2.133e-5,"MEAN_MOTION_DDOT":0},{"OBJECT_NAME":"FENGYUN 1C DEB","OBJECT_ID":"1999-025AMC","EPOCH":"2026-03-14T19:09:07.101504","MEAN_MOTION":15.07804486,"ECCENTRICITY":0.00294069,"INCLINATION":98.9467,"RA_OF_ASC_NODE":28.7817,"ARG_OF_PERICENTER":223.0943,"MEAN_ANOMALY":136.7979,"EPHEMERIS_TYPE":0,"CLASSIFICATION_TYPE":"U","NORAD_CAT_ID":30597,"ELEMENT_SET_NO":999,"REV_AT_EPOCH":99916,"BSTAR":0.0080090409,"MEAN_MOTION_DOT":0.0012577,"MEAN_MOTION_DDOT":0},{"OBJECT_NAME":"FENGYUN 1C DEB","OBJECT_ID":"1999-025AME","EPOCH":"2026-03-15T06:33:27.681984","MEAN_MOTION":14.20118609,"ECCENTRICITY":0.03025,"INCLINATION":98.6012,"RA_OF_ASC_NODE":88.4681,"ARG_OF_PERICENTER":76.7794,"MEAN_ANOMALY":286.6938,"EPHEMERIS_TYPE":0,"CLASSIFICATION_TYPE":"U","NORAD_CAT_ID":30599,"ELEMENT_SET_NO":999,"REV_AT_EPOCH":98480,"BSTAR":0.0007438608,"MEAN_MOTION_DOT":2.468e-5,"MEAN_MOTION_DDOT":0},{"OBJECT_NAME":"FENGYUN 1C DEB","OBJECT_ID":"1999-025AMF","EPOCH":"2026-03-15T05:39:14.827392","MEAN_MOTION":14.09431349,"ECCENTRICITY":0.03245152,"INCLINATION":98.3904,"RA_OF_ASC_NODE":17.6944,"ARG_OF_PERICENTER":343.1414,"MEAN_ANOMALY":15.917,"EPHEMERIS_TYPE":0,"CLASSIFICATION_TYPE":"U","NORAD_CAT_ID":30600,"ELEMENT_SET_NO":999,"REV_AT_EPOCH":95734,"BSTAR":0.0055181177,"MEAN_MOTION_DOT":0.00015697,"MEAN_MOTION_DDOT":0},{"OBJECT_NAME":"FENGYUN 1C DEB","OBJECT_ID":"1999-025AMH","EPOCH":"2026-03-15T02:07:48.052704","MEAN_MOTION":15.1687165,"ECCENTRICITY":0.00095259,"INCLINATION":99.0196,"RA_OF_ASC_NODE":7.9697,"ARG_OF_PERICENTER":139.8065,"MEAN_ANOMALY":349.7781,"EPHEMERIS_TYPE":0,"CLASSIFICATION_TYPE":"U","NORAD_CAT_ID":30602,"ELEMENT_SET_NO":999,"REV_AT_EPOCH":99191,"BSTAR":0.012962917,"MEAN_MOTION_DOT":0.00264682,"MEAN_MOTION_DDOT":0},{"OBJECT_NAME":"FENGYUN 1C DEB","OBJECT_ID":"1999-025AMJ","EPOCH":"2026-03-13T00:38:08.134656","MEAN_MOTION":13.8446565,"ECCENTRICITY":0.01807515,"INCLINATION":98.4037,"RA_OF_ASC_NODE":90.5473,"ARG_OF_PERICENTER":318.4692,"MEAN_ANOMALY":95.4331,"EPHEMERIS_TYPE":0,"CLASSIFICATION_TYPE":"U","NORAD_CAT_ID":30603,"ELEMENT_SET_NO":999,"REV_AT_EPOCH":96125,"BSTAR":0.0014797136,"MEAN_MOTION_DOT":1.843e-5,"MEAN_MOTION_DDOT":0},{"OBJECT_NAME":"FENGYUN 1C DEB","OBJECT_ID":"1999-025AMK","EPOCH":"2026-03-14T13:12:31.584384","MEAN_MOTION":14.23800752,"ECCENTRICITY":0.02104749,"INCLINATION":98.39,"RA_OF_ASC_NODE":109.3252,"ARG_OF_PERICENTER":97.8482,"MEAN_ANOMALY":62.9412,"EPHEMERIS_TYPE":0,"CLASSIFICATION_TYPE":"U","NORAD_CAT_ID":30604,"ELEMENT_SET_NO":999,"REV_AT_EPOCH":99145,"BSTAR":0.00035208357,"MEAN_MOTION_DOT":9.7e-6,"MEAN_MOTION_DDOT":0},{"OBJECT_NAME":"FENGYUN 1C DEB","OBJECT_ID":"1999-025AMM","EPOCH":"2026-03-14T12:19:11.774208","MEAN_MOTION":14.58612869,"ECCENTRICITY":0.0209863,"INCLINATION":98.0948,"RA_OF_ASC_NODE":86.3164,"ARG_OF_PERICENTER":210.6573,"MEAN_ANOMALY":303.0171,"EPHEMERIS_TYPE":0,"CLASSIFICATION_TYPE":"U","NORAD_CAT_ID":30606,"ELEMENT_SET_NO":999,"REV_AT_EPOCH":580,"BSTAR":0.00063936348,"MEAN_MOTION_DOT":3.987e-5,"MEAN_MOTION_DDOT":0},{"OBJECT_NAME":"FENGYUN 1C DEB","OBJECT_ID":"1999-025AMP","EPOCH":"2026-03-15T04:03:07.409664","MEAN_MOTION":14.29043784,"ECCENTRICITY":0.00136033,"INCLINATION":98.6959,"RA_OF_ASC_NODE":141.6362,"ARG_OF_PERICENTER":266.1599,"MEAN_ANOMALY":149.8821,"EPHEMERIS_TYPE":0,"CLASSIFICATION_TYPE":"U","NORAD_CAT_ID":30608,"ELEMENT_SET_NO":999,"REV_AT_EPOCH":98759,"BSTAR":0.00080139707,"MEAN_MOTION_DOT":1.987e-5,"MEAN_MOTION_DDOT":0},{"OBJECT_NAME":"FENGYUN 1C DEB","OBJECT_ID":"1999-025AMQ","EPOCH":"2026-03-15T00:28:19.976160","MEAN_MOTION":14.12160869,"ECCENTRICITY":0.01144414,"INCLINATION":98.5689,"RA_OF_ASC_NODE":351.5404,"ARG_OF_PERICENTER":149.52,"MEAN_ANOMALY":211.269,"EPHEMERIS_TYPE":0,"CLASSIFICATION_TYPE":"U","NORAD_CAT_ID":30609,"ELEMENT_SET_NO":999,"REV_AT_EPOCH":97030,"BSTAR":0.0017627117,"MEAN_MOTION_DOT":3.403e-5,"MEAN_MOTION_DDOT":0},{"OBJECT_NAME":"FENGYUN 1C DEB","OBJECT_ID":"1999-025AMT","EPOCH":"2026-03-15T06:59:50.741664","MEAN_MOTION":15.83443247,"ECCENTRICITY":0.00056219,"INCLINATION":99.0667,"RA_OF_ASC_NODE":91.6969,"ARG_OF_PERICENTER":89.8049,"MEAN_ANOMALY":282.0968,"EPHEMERIS_TYPE":0,"CLASSIFICATION_TYPE":"U","NORAD_CAT_ID":30612,"ELEMENT_SET_NO":999,"REV_AT_EPOCH":1688,"BSTAR":0.00694079,"MEAN_MOTION_DOT":0.01734442,"MEAN_MOTION_DDOT":0},{"OBJECT_NAME":"FENGYUN 1C DEB","OBJECT_ID":"1999-025AMU","EPOCH":"2026-03-14T19:48:22.331808","MEAN_MOTION":15.45007218,"ECCENTRICITY":0.00386009,"INCLINATION":98.2874,"RA_OF_ASC_NODE":209.151,"ARG_OF_PERICENTER":218.2599,"MEAN_ANOMALY":141.5907,"EPHEMERIS_TYPE":0,"CLASSIFICATION_TYPE":"U","NORAD_CAT_ID":30613,"ELEMENT_SET_NO":999,"REV_AT_EPOCH":798,"BSTAR":0.0066372058,"MEAN_MOTION_DOT":0.00334647,"MEAN_MOTION_DDOT":0},{"OBJECT_NAME":"FENGYUN 1C DEB","OBJECT_ID":"1999-025AMX","EPOCH":"2026-03-14T14:23:57.936768","MEAN_MOTION":13.36243685,"ECCENTRICITY":0.03793409,"INCLINATION":98.6312,"RA_OF_ASC_NODE":122.9678,"ARG_OF_PERICENTER":25.7961,"MEAN_ANOMALY":336.1558,"EPHEMERIS_TYPE":0,"CLASSIFICATION_TYPE":"U","NORAD_CAT_ID":30616,"ELEMENT_SET_NO":999,"REV_AT_EPOCH":92927,"BSTAR":0.00097485294,"MEAN_MOTION_DOT":7.22e-6,"MEAN_MOTION_DDOT":0},{"OBJECT_NAME":"FENGYUN 1C DEB","OBJECT_ID":"1999-025ANA","EPOCH":"2026-03-13T12:55:18.510816","MEAN_MOTION":14.41376702,"ECCENTRICITY":0.02150222,"INCLINATION":98.2884,"RA_OF_ASC_NODE":97.8591,"ARG_OF_PERICENTER":143.7316,"MEAN_ANOMALY":217.8671,"EPHEMERIS_TYPE":0,"CLASSIFICATION_TYPE":"U","NORAD_CAT_ID":30619,"ELEMENT_SET_NO":999,"REV_AT_EPOCH":246,"BSTAR":0.00028147168,"MEAN_MOTION_DOT":1.152e-5,"MEAN_MOTION_DDOT":0},{"OBJECT_NAME":"FENGYUN 1C DEB","OBJECT_ID":"1999-025ANC","EPOCH":"2026-03-14T19:17:02.437152","MEAN_MOTION":14.04459915,"ECCENTRICITY":0.01373979,"INCLINATION":98.7002,"RA_OF_ASC_NODE":18.3518,"ARG_OF_PERICENTER":46.7387,"MEAN_ANOMALY":343.068,"EPHEMERIS_TYPE":0,"CLASSIFICATION_TYPE":"U","NORAD_CAT_ID":30621,"ELEMENT_SET_NO":999,"REV_AT_EPOCH":96882,"BSTAR":0.0023946448,"MEAN_MOTION_DOT":4.113e-5,"MEAN_MOTION_DDOT":0},{"OBJECT_NAME":"FENGYUN 1C DEB","OBJECT_ID":"1999-025AND","EPOCH":"2026-03-14T20:55:13.096704","MEAN_MOTION":14.32905942,"ECCENTRICITY":0.00734685,"INCLINATION":100.9932,"RA_OF_ASC_NODE":114.8422,"ARG_OF_PERICENTER":127.0902,"MEAN_ANOMALY":52.2626,"EPHEMERIS_TYPE":0,"CLASSIFICATION_TYPE":"U","NORAD_CAT_ID":30622,"ELEMENT_SET_NO":999,"REV_AT_EPOCH":70116,"BSTAR":0.0034600656,"MEAN_MOTION_DOT":9.692e-5,"MEAN_MOTION_DDOT":0}]
